GLOBALSTAR M068 [-]     
1 32266U 07048D   23321.03901274 -.00000062  00000+0  23333-3 0  9990
2 32266  51.9887 264.5646 0000898 355.1916  84.7706 12.62771280744808
GLOBALSTAR M079 [+]     
1 37188U 10054A   23321.15802339 -.00000111  00000+0 -40760-4 0  9994
2 37188  52.0023  99.3974 0001101 108.7806  62.8899 12.62269906604134
GLOBALSTAR M074 [+]     
1 37189U 10054B   23320.35842591 -.00000114  00000+0 -55031-4 0  9990
2 37189  51.9999 101.2430 0000879 110.5299 266.4627 12.62271951603967
GLOBALSTAR M076 [+]     
1 37190U 10054C   23321.13151450 -.00000113  00000+0 -49218-4 0  9995
2 37190  52.0014  99.0095 0001263 131.8477  38.7607 12.62263811604136
GLOBALSTAR M077 [+]     
1 37191U 10054D   23320.21153701 -.00000095  00000+0  50220-4 0  9998
2 37191  52.0080  58.5005 0000616 122.2751 245.0596 12.62266428604037
GLOBALSTAR M075 [+]     
1 37192U 10054E   23320.47782727 -.00000111  00000+0 -37590-4 0  9998
2 37192  51.9923 143.5828 0001109  91.7943 285.6176 12.62267570602920
GLOBALSTAR M073 [+]     
1 37193U 10054F   23320.66438664 -.00000099  00000+0  25534-4 0  9997
2 37193  52.0068  56.3871 0000706 119.8670  27.5875 12.62269228604779
GLOBALSTAR M083 [+]     
1 37739U 11033A   23320.84115656 -.00000089  00000+0  80226-4 0  9992
2 37739  51.9883   5.3722 0000495  75.6531  96.5313 12.62262896573814
GLOBALSTAR M088 [+]     
1 37740U 11033B   23321.03170840 -.00000084  00000+0  11142-3 0  9997
2 37740  51.9739 270.7705 0000912  58.4285  19.5983 12.62267521569671
GLOBALSTAR M091 [+]     
1 37741U 11033C   23320.19308286 -.00000063  00000+0  22597-3 0  9994
2 37741  51.9997 235.8456 0001152  63.7252 100.8084 12.62268563570061
GLOBALSTAR M085 [+]     
1 37742U 11033D   23320.93834707 -.00000087  00000+0  95067-4 0  9998
2 37742  51.9852 185.1275 0001251  76.1635 297.0527 12.62265316570672
GLOBALSTAR M081 [+]     
1 37743U 11033E   23320.96537453 -.00000076  00000+0  15457-3 0  9992
2 37743  51.9943 187.4754 0001346  83.4131 292.6911 12.62266964570823
GLOBALSTAR M089 [+]     
1 37744U 11033F   23320.76670619 -.00000106  00000+0 -96431-5 0  9991
2 37744  51.9904 142.4154 0001006 108.4937 264.4746 12.62269717571644
GLOBALSTAR M084 [+]     
1 38040U 11080A   23321.09776580 -.00000085  00000+0  10696-3 0  9996
2 38040  52.0033   8.3904 0000399 149.6764 227.3554 12.62267715549940
GLOBALSTAR M080 [+]     
1 38041U 11080B   23321.15078201 -.00000084  00000+0  10975-3 0  9998
2 38041  52.0085   9.6324 0000609 151.5094 226.6127 12.62266172549933
GLOBALSTAR M082 [+]     
1 38042U 11080C   23320.80188427 -.00000092  00000+0  68425-4 0  9995
2 38042  52.0089 326.0787 0000827  24.0208 149.1046 12.62268020550452
GLOBALSTAR M092 [+]     
1 38043U 11080D   23320.69430484 -.00000098  00000+0  34749-4 0  9994
2 38043  52.0099  56.7473 0000523 155.8360   8.8528 12.62262639548899
GLOBALSTAR M090 [+]     
1 38044U 11080E   23320.74851184 -.00000091  00000+0  70852-4 0  9993
2 38044  51.9898 320.7939 0000604  46.8790 124.4043 12.62263523550569
GLOBALSTAR M086 [+]     
1 38045U 11080F   23320.77500896 -.00000086  00000+0  97226-4 0  9996
2 38045  51.9909 321.2210 0001229 102.5610  68.1624 12.62264363550513
GLOBALSTAR M097 [+]     
1 39072U 13005A   23321.15983822 -.00000075  00000+0  16325-3 0  9991
2 39072  52.0045 234.0079 0001141  65.7730 294.3256 12.62272631497899
GLOBALSTAR M093 [+]     
1 39073U 13005B   23321.13336351 -.00000067  00000+0  20568-3 0  9994
2 39073  51.9809 228.3171 0001403  68.2259 291.8757 12.62268952497888
GLOBALSTAR M094 [+]     
1 39074U 13005C   23320.81667595 -.00000111  00000+0 -40762-4 0  9996
2 39074  51.9933 143.0848 0001232  93.7150 266.3857 12.62269934499335
GLOBALSTAR M096 [+]     
1 39075U 13005D   23321.06746415 -.00000081  00000+0  12715-3 0  9995
2 39075  52.0060 190.3858 0001349  77.5108 282.5910 12.62266399498631
GLOBALSTAR M078 [+]     
1 39076U 13005E   23321.19927507 -.00000023  00000+0  44900-3 0  9990
2 39076  51.9878 275.2781 0001166   5.7556 354.3324 12.62263907497135
GLOBALSTAR M095 [+]     
1 39077U 13005F   23320.27557707 -.00000087  00000+0  94209-4 0  9998
2 39077  51.9801 275.5760 0001189  34.2979 325.7964 12.62270627496669
GLOBALSTAR M087 [+]     
1 52888U 22064A   23321.14744105 -.00000070  00000+0  11109-3 0  9994
2 52888  51.9757 231.2311 0009165 179.2228 180.8688 13.37558148 69012
